EOSSAT-1                
1 55053U 23001AW  26068.73619225  .00007695  00000+0  24844-3 0  9992
2 55053  97.3357 130.2294 0011263 110.3168 249.9285 15.32339828176689
STARLINK-31995          
1 59958U 24107P   26068.27465130  .00000834  00000+0  40267-4 0  9997
2 59958  53.1589  67.4043 0001148  72.8895 287.2232 15.30196126 98531
